OBJECT_NAME,OBJECT_ID,EPOCH,MEAN_MOTION,ECCENTRICITY,INCLINATION,RA_OF_ASC_NODE,ARG_OF_PERICENTER,MEAN_ANOMALY,EPHEMERIS_TYPE,CLASSIFICATION_TYPE,NORAD_CAT_ID,ELEMENT_SET_NO,REV_AT_EPOCH,BSTAR,MEAN_MOTION_DOT,MEAN_MOTION_DDOT
STARLINK-37779,2026-122X,2026-06-11T06:00:02.000160,15.93334639,.00012682,97.2864,191.3843,103.1590,196.8635,0,U,69350,999,240,-.80999918E-2,-.2822718E-1,.21596873E-2
STARLINK-37549,2026-122Y,2026-06-11T06:00:02.000160,15.91534485,.00014723,97.2868,191.3842,108.1080,191.5619,0,U,69351,999,240,-.90181049E-2,-.2863324E-1,.21751861E-2
STARLINK-37778,2026-122Z,2026-06-11T06:00:02.000160,15.92988221,.00008122,97.2867,191.3851,85.3122,216.5199,0,U,69352,999,240,-.25094721E-2,-.867764E-2,.23350087E-3
STARLINK-37651,2026-123A,2026-06-11T06:00:02.000160,15.90058294,.00009256,53.1585,271.6392,64.7112,14.1294,0,U,69353,999,219,-.66845472E-2,-.1780249E-1,0
STARLINK-37652,2026-123B,2026-06-11T06:00:02.000160,15.88809413,.00011532,53.1583,271.6318,61.4089,20.9805,0,U,69354,999,219,-.71737925E-2,-.1790607E-1,0
STARLINK-37593,2026-123C,2026-06-11T06:00:02.000160,15.88995741,.00009035,53.1584,271.6238,75.0280,11.2363,0,U,69355,999,224,-.71378412E-2,-.1797208E-1,0
STARLINK-37597,2026-123D,2026-06-11T06:00:02.000160,15.89370735,.00010128,53.1583,271.6108,55.2111,37.2644,0,U,69356,999,224,-.69094286E-2,-.1776877E-1,0
STARLINK-37598,2026-123E,2026-06-11T06:00:02.000160,15.89924184,.00010343,53.1582,271.5969,59.9637,39.3112,0,U,69357,999,224,-.65723279E-2,-.1744206E-1,0
STARLINK-37602,2026-123F,2026-06-11T06:00:02.000160,15.90050677,.00007438,53.1581,271.5887,86.9727,16.2981,0,U,69358,999,224,-.6576582E-2,-.175472E-1,0
STARLINK-37600,2026-123G,2026-06-11T06:00:02.000160,15.90863581,.00010095,53.1579,271.5693,62.2895,50.2757,0,U,69359,999,224,-.61914203E-2,-.196976E-1,.10455121E-2
STARLINK-37599,2026-123H,2026-06-11T06:00:02.000160,15.93002214,.00008127,53.1578,271.5500,77.8955,44.0009,0,U,69360,999,219,-.2533136E-2,-.908645E-2,.25991065E-3
STARLINK-37039,2026-123J,2026-06-11T06:00:02.000160,15.90949217,.00010887,53.1579,271.5478,61.5795,61.2638,0,U,69361,999,219,-.64476173E-2,-.2059089E-1,.11366954E-2
STARLINK-37040,2026-123K,2026-06-11T06:00:02.000160,15.93749001,.00007928,53.1578,271.5187,71.4915,65.2765,0,U,69362,999,219,-.10699236E-2,-.402185E-2,.63641143E-4
STARLINK-37582,2026-123L,2026-06-11T06:00:02.000160,15.92086359,.00010024,53.1575,271.5176,70.6835,66.7236,0,U,69363,999,219,-.5796978E-2,-.1964342E-1,.10529005E-2
STARLINK-37309,2026-123M,2026-06-11T06:00:02.000160,15.95741251,.00007111,53.1572,271.4917,69.0187,80.9262,0,U,69364,999,233,-.85265557E-3,-.357159E-2,.53749613E-4
STARLINK-37436,2026-123N,2026-06-11T06:00:02.000160,15.96351999,.00007342,53.1572,271.4692,67.7783,92.8213,0,U,69365,999,233,-.84131693E-3,-.364271E-2,.55748633E-4
STARLINK-37581,2026-123P,2026-06-11T06:00:02.000160,15.95987816,.0000693,53.1572,271.4622,67.8644,96.1519,0,U,69366,999,218,-.8557723E-3,-.36324E-2,.55309675E-4
STARLINK-37683,2026-123Q,2026-06-11T06:00:02.000160,15.96311128,.00007831,53.1572,271.4499,66.0416,103.8161,0,U,69367,999,219,-.84802521E-3,-.366333E-2,.56221538E-4
STARLINK-37687,2026-123R,2026-06-11T06:00:02.000160,15.97566485,.00007101,53.1570,271.4267,66.3648,114.6074,0,U,69368,999,219,-.69617452E-3,-.322768E-2,.46866952E-4
STARLINK-37631,2026-123S,2026-06-11T06:00:02.000160,15.97843590,.00007105,53.1568,271.4143,64.0744,123.0590,0,U,69369,999,224,-.72917983E-3,-.343079E-2,.51539436E-4
STARLINK-37673,2026-123T,2026-06-11T06:00:02.000160,15.98344466,.00006971,53.1566,271.3984,65.4693,129.2889,0,U,69370,999,224,-.6722857E-3,-.325503E-2,.47814708E-4
STARLINK-37645,2026-123U,2026-06-11T06:00:02.000160,15.98394739,.00007235,53.1567,271.3915,64.3223,133.6585,0,U,69371,999,224,-.68309478E-3,-.331599E-2,.49194981E-4
STARLINK-37688,2026-123V,2026-06-11T06:00:02.000160,15.99047338,.00008107,53.1565,271.3335,80.2698,145.4058,0,U,69372,999,224,-.36960971E-2,-.1827325E-1,.99018589E-3
STARLINK-37685,2026-123W,2026-06-11T06:00:02.000160,15.98991231,.0000775,53.1564,271.3243,74.0193,156.0908,0,U,69373,999,224,-.37009916E-2,-.1823997E-1,.98621386E-3
STARLINK-37632,2026-123X,2026-06-11T06:00:02.000160,15.98924957,.00007338,53.1562,271.3166,76.0097,157.7308,0,U,69374,999,219,-.37011218E-2,-.1817337E-1,.97879802E-3
STARLINK-37454,2026-123Y,2026-06-11T06:00:02.000160,15.98914690,.00007252,53.1562,271.3015,80.3687,160.5014,0,U,69375,999,233,-.36882272E-2,-.1810054E-1,.9713948E-3
STARLINK-37485,2026-123Z,2026-06-11T06:00:02.000160,15.98960103,.00007068,53.1562,271.2931,79.3348,165.5435,0,U,69376,999,233,-.36804652E-2,-.1810864E-1,.97269089E-3
STARLINK-37439,2026-123AA,2026-06-11T06:00:02.000160,16.00615866,.00007056,53.1558,271.2682,74.6379,182.1212,0,U,69377,999,219,-.33002673E-2,-.1784926E-1,.96456289E-3
STARLINK-37376,2026-123AB,2026-06-11T06:00:02.000160,15.99623208,.00006996,53.1559,271.2670,71.0893,186.1658,0,U,69378,999,233,-.34486428E-2,-.1762412E-1,.93163637E-3
