STARLINK-37779          
1 69350U 26122X   26162.25002315 -.02822718  21597-2 -81000-2 0  9990
2 69350  97.2864 191.3843 0001268 103.1590 196.8635 15.93334639  2406
STARLINK-37549          
1 69351U 26122Y   26162.25002315 -.02863324  21752-2 -90181-2 0  9992
2 69351  97.2868 191.3842 0001472 108.1080 191.5619 15.91534485  2409
STARLINK-37778          
1 69352U 26122Z   26162.25002315 -.00867764  23350-3 -25095-2 0  9992
2 69352  97.2867 191.3851 0000812  85.3122 216.5199 15.92988221  2402
STARLINK-37651          
1 69353U 26123A   26162.25002315 -.01780249  00000+0 -66845-2 0  9998
2 69353  53.1585 271.6392 0000925  64.7112  14.1294 15.90058294  2198
STARLINK-37652          
1 69354U 26123B   26162.25002315 -.01790607  00000+0 -71738-2 0  9995
2 69354  53.1583 271.6318 0001153  61.4089  20.9805 15.88809413  2193
STARLINK-37593          
1 69355U 26123C   26162.25002315 -.01797208  00000+0 -71378-2 0  9990
2 69355  53.1584 271.6238 0000903  75.0280  11.2363 15.88995741  2240
STARLINK-37597          
1 69356U 26123D   26162.25002315 -.01776877  00000+0 -69094-2 0  9992
2 69356  53.1583 271.6108 0001012  55.2111  37.2644 15.89370735  2242
STARLINK-37598          
1 69357U 26123E   26162.25002315 -.01744206  00000+0 -65723-2 0  9999
2 69357  53.1582 271.5969 0001034  59.9637  39.3112 15.89924184  2240
STARLINK-37602          
1 69358U 26123F   26162.25002315 -.01754720  00000+0 -65766-2 0  9999
2 69358  53.1581 271.5887 0000743  86.9727  16.2981 15.90050677  2242
STARLINK-37600          
1 69359U 26123G   26162.25002315 -.01969760  10455-2 -61914-2 0  9991
2 69359  53.1579 271.5693 0001009  62.2895  50.2757 15.90863581  2249
STARLINK-37599          
1 69360U 26123H   26162.25002315 -.00908645  25991-3 -25331-2 0  9992
2 69360  53.1578 271.5500 0000812  77.8955  44.0009 15.93002214  2193
STARLINK-37039          
1 69361U 26123J   26162.25002315 -.02059089  11367-2 -64476-2 0  9998
2 69361  53.1579 271.5478 0001088  61.5795  61.2638 15.90949217  2196
STARLINK-37040          
1 69362U 26123K   26162.25002315 -.00402185  63641-4 -10699-2 0  9998
2 69362  53.1578 271.5187 0000792  71.4915  65.2765 15.93749001  2195
STARLINK-37582          
1 69363U 26123L   26162.25002315 -.01964342  10529-2 -57970-2 0  9996
2 69363  53.1575 271.5176 0001002  70.6835  66.7236 15.92086359  2196
STARLINK-37309          
1 69364U 26123M   26162.25002315 -.00357159  53750-4 -85266-3 0  9993
2 69364  53.1572 271.4917 0000711  69.0187  80.9262 15.95741251  2339
STARLINK-37436          
1 69365U 26123N   26162.25002315 -.00364271  55749-4 -84132-3 0  9998
2 69365  53.1572 271.4692 0000734  67.7783  92.8213 15.96351999  2337
STARLINK-37581          
1 69366U 26123P   26162.25002315 -.00363240  55310-4 -85577-3 0  9992
2 69366  53.1572 271.4622 0000693  67.8644  96.1519 15.95987816  2183
STARLINK-37683          
1 69367U 26123Q   26162.25002315 -.00366333  56222-4 -84803-3 0  9993
2 69367  53.1572 271.4499 0000783  66.0416 103.8161 15.96311128  2192
STARLINK-37687          
1 69368U 26123R   26162.25002315 -.00322768  46867-4 -69617-3 0  9998
2 69368  53.1570 271.4267 0000710  66.3648 114.6074 15.97566485  2196
STARLINK-37631          
1 69369U 26123S   26162.25002315 -.00343079  51539-4 -72918-3 0  9997
2 69369  53.1568 271.4143 0000710  64.0744 123.0590 15.97843590  2247
STARLINK-37673          
1 69370U 26123T   26162.25002315 -.00325503  47815-4 -67229-3 0  9992
2 69370  53.1566 271.3984 0000697  65.4693 129.2889 15.98344466  2249
STARLINK-37645          
1 69371U 26123U   26162.25002315 -.00331599  49195-4 -68309-3 0  9998
2 69371  53.1567 271.3915 0000723  64.3223 133.6585 15.98394739  2242
STARLINK-37688          
1 69372U 26123V   26162.25002315 -.01827325  99019-3 -36961-2 0  9994
2 69372  53.1565 271.3335 0000810  80.2698 145.4058 15.99047338  2244
STARLINK-37685          
1 69373U 26123W   26162.25002315 -.01823997  98621-3 -37010-2 0  9990
2 69373  53.1564 271.3243 0000775  74.0193 156.0908 15.98991231  2244
STARLINK-37632          
1 69374U 26123X   26162.25002315 -.01817337  97880-3 -37011-2 0  9999
2 69374  53.1562 271.3166 0000733  76.0097 157.7308 15.98924957  2193
STARLINK-37454          
1 69375U 26123Y   26162.25002315 -.01810054  97139-3 -36882-2 0  9991
2 69375  53.1562 271.3015 0000725  80.3687 160.5014 15.98914690  2336
STARLINK-37485          
1 69376U 26123Z   26162.25002315 -.01810864  97269-3 -36805-2 0  9990
2 69376  53.1562 271.2931 0000706  79.3348 165.5435 15.98960103  2336
STARLINK-37439          
1 69377U 26123AA  26162.25002315 -.01784926  96456-3 -33003-2 0  9994
2 69377  53.1558 271.2682 0000705  74.6379 182.1212 16.00615866  2195
STARLINK-37376          
1 69378U 26123AB  26162.25002315 -.01762412  93164-3 -34486-2 0  9990
2 69378  53.1559 271.2670 0000699  71.0893 186.1658 15.99623208  2338
